{
  "type": "FeatureCollection",
  "features": [
    {
      "type": "Feature",
      "properties": {
        "norad_id": 34875,
        "name": "COSMOS 2251 DEB",
        "group": "cosmos-2251-debris",
        "lat": 15.067413624804644,
        "lon": -38.477796737122226,
        "alt_km": 732.51613452124,
        "timestamp": "2025-12-19T06:59:44.302085+00:00",
        "meta_object_name": "COSMOS 2251 DEB",
        "meta_object_id": "1993-036ACN",
        "meta_epoch": "2025-12-18T20:59:26.678976",
        "meta_mean_motion": 14.48946121,
        "meta_eccentricity": 0.00162292,
        "meta_inclination": 74.0436,
        "meta_ra_of_asc_node": 146.7205,
        "meta_arg_of_pericenter": 270.0148,
        "meta_mean_anomaly": 240.7706,
        "meta_ephemeris_type": 0,
        "meta_classification_type": "U",
        "meta_norad_cat_id": 34875,
        "meta_element_set_no": 999,
        "meta_rev_at_epoch": 87844,
        "meta_bstar": 0.00037887223,
        "meta_mean_motion_dot": 1.41e-05,
        "meta_mean_motion_ddot": 0,
        "tle_line1": "1 34875U 93036ACN 25352.87461434  .00001410  00000+0  37887-3 0  9993",
        "tle_line2": "2 34875  74.0436 146.7205 0016229 270.0148 240.7706 14.48946121878447"
      },
      "geometry": {
        "type": "Point",
        "coordinates": [
          -38.477796737122226,
          15.067413624804644
        ]
      }
    },
    {
      "type": "Feature",
      "properties": {
        "norad_id": 34878,
        "name": "COSMOS 2251 DEB",
        "group": "cosmos-2251-debris",
        "lat": -17.598852417202657,
        "lon": 31.695494311141477,
        "alt_km": 834.5252201856192,
        "timestamp": "2025-12-19T06:59:44.302095+00:00",
        "meta_object_name": "COSMOS 2251 DEB",
        "meta_object_id": "1993-036ACR",
        "meta_epoch": "2025-12-18T11:43:50.154816",
        "meta_mean_motion": 13.44198549,
        "meta_eccentricity": 0.04355423,
        "meta_inclination": 73.9648,
        "meta_ra_of_asc_node": 38.2023,
        "meta_arg_of_pericenter": 20.5933,
        "meta_mean_anomaly": 41.1535,
        "meta_ephemeris_type": 0,
        "meta_classification_type": "U",
        "meta_norad_cat_id": 34878,
        "meta_element_set_no": 999,
        "meta_rev_at_epoch": 81350,
        "meta_bstar": 0.00058920549,
        "meta_mean_motion_dot": 5.85e-06,
        "meta_mean_motion_ddot": 0,
        "tle_line1": "1 34878U 93036ACR 25352.48877494  .00000585  00000+0  58921-3 0  9994",
        "tle_line2": "2 34878  73.9648  38.2023 0435542  20.5933  41.1535 13.44198549813506"
      },
      "geometry": {
        "type": "Point",
        "coordinates": [
          31.695494311141477,
          -17.598852417202657
        ]
      }
    },
    {
      "type": "Feature",
      "properties": {
        "norad_id": 34882,
        "name": "COSMOS 2251 DEB",
        "group": "cosmos-2251-debris",
        "lat": 44.614156336237976,
        "lon": -130.54059978935126,
        "alt_km": 661.9190704988796,
        "timestamp": "2025-12-19T06:59:44.302105+00:00",
        "meta_object_name": "COSMOS 2251 DEB",
        "meta_object_id": "1993-036ACV",
        "meta_epoch": "2025-12-18T01:12:56.345760",
        "meta_mean_motion": 14.61607051,
        "meta_eccentricity": 0.00830708,
        "meta_inclination": 74.0456,
        "meta_ra_of_asc_node": 215.4368,
        "meta_arg_of_pericenter": 341.1734,
        "meta_mean_anomaly": 18.6364,
        "meta_ephemeris_type": 0,
        "meta_classification_type": "U",
        "meta_norad_cat_id": 34882,
        "meta_element_set_no": 999,
        "meta_rev_at_epoch": 88602,
        "meta_bstar": 0.00011703078,
        "meta_mean_motion_dot": 5.78e-06,
        "meta_mean_motion_ddot": 0,
        "tle_line1": "1 34882U 93036ACV 25352.05065215  .00000578  00000+0  11703-3 0  9991",
        "tle_line2": "2 34882  74.0456 215.4368 0083070 341.1734  18.6364 14.61607051886026"
      },
      "geometry": {
        "type": "Point",
        "coordinates": [
          -130.54059978935126,
          44.614156336237976
        ]
      }
    },
    {
      "type": "Feature",
      "properties": {
        "norad_id": 34883,
        "name": "COSMOS 2251 DEB",
        "group": "cosmos-2251-debris",
        "lat": -35.92342492017778,
        "lon": -117.65766386676181,
        "alt_km": 661.5747837845574,
        "timestamp": "2025-12-19T06:59:44.302115+00:00",
        "meta_object_name": "COSMOS 2251 DEB",
        "meta_object_id": "1993-036ACW",
        "meta_epoch": "2025-12-18T13:27:07.209504",
        "meta_mean_motion": 14.51672805,
        "meta_eccentricity": 0.00951028,
        "meta_inclination": 74.2022,
        "meta_ra_of_asc_node": 51.868,
        "meta_arg_of_pericenter": 236.3156,
        "meta_mean_anomaly": 122.8912,
        "meta_ephemeris_type": 0,
        "meta_classification_type": "U",
        "meta_norad_cat_id": 34883,
        "meta_element_set_no": 999,
        "meta_rev_at_epoch": 86524,
        "meta_bstar": 0.0028915699,
        "meta_mean_motion_dot": 0.00012297,
        "meta_mean_motion_ddot": 0,
        "tle_line1": "1 34883U 93036ACW 25352.56050011  .00012297  00000+0  28916-2 0  9990",
        "tle_line2": "2 34883  74.2022  51.8680 0095102 236.3156 122.8912 14.51672805865245"
      },
      "geometry": {
        "type": "Point",
        "coordinates": [
          -117.65766386676181,
          -35.92342492017778
        ]
      }
    },
    {
      "type": "Feature",
      "properties": {
        "norad_id": 34884,
        "name": "COSMOS 2251 DEB",
        "group": "cosmos-2251-debris",
        "lat": -17.557467057285702,
        "lon": 38.41057346492953,
        "alt_km": 600.8557684127754,
        "timestamp": "2025-12-19T06:59:44.302125+00:00",
        "meta_object_name": "COSMOS 2251 DEB",
        "meta_object_id": "1993-036ACX",
        "meta_epoch": "2025-12-18T20:20:15.053280",
        "meta_mean_motion": 14.90331593,
        "meta_eccentricity": 0.00025983,
        "meta_inclination": 74.0174,
        "meta_ra_of_asc_node": 44.5032,
        "meta_arg_of_pericenter": 52.1637,
        "meta_mean_anomaly": 68.0631,
        "meta_ephemeris_type": 0,
        "meta_classification_type": "U",
        "meta_norad_cat_id": 34884,
        "meta_element_set_no": 999,
        "meta_rev_at_epoch": 87896,
        "meta_bstar": 0.0018119739,
        "meta_mean_motion_dot": 0.00017632,
        "meta_mean_motion_ddot": 0,
        "tle_line1": "1 34884U 93036ACX 25352.84739645  .00017632  00000+0  18120-2 0  9993",
        "tle_line2": "2 34884  74.0174  44.5032 0002598  52.1637  68.0631 14.90331593878968"
      },
      "geometry": {
        "type": "Point",
        "coordinates": [
          38.41057346492953,
          -17.557467057285702
        ]
      }
    },
    {
      "type": "Feature",
      "properties": {
        "norad_id": 34885,
        "name": "COSMOS 2251 DEB",
        "group": "cosmos-2251-debris",
        "lat": 34.236899945733434,
        "lon": -178.07634596611686,
        "alt_km": 726.2790930225883,
        "timestamp": "2025-12-19T06:59:44.302135+00:00",
        "meta_object_name": "COSMOS 2251 DEB",
        "meta_object_id": "1993-036ACY",
        "meta_epoch": "2025-12-18T23:08:06.162144",
        "meta_mean_motion": 14.51533828,
        "meta_eccentricity": 0.00150907,
        "meta_inclination": 74.0297,
        "meta_ra_of_asc_node": 171.302,
        "meta_arg_of_pericenter": 256.6098,
        "meta_mean_anomaly": 228.3961,
        "meta_ephemeris_type": 0,
        "meta_classification_type": "U",
        "meta_norad_cat_id": 34885,
        "meta_element_set_no": 999,
        "meta_rev_at_epoch": 87569,
        "meta_bstar": 0.00054055899,
        "meta_mean_motion_dot": 2.138e-05,
        "meta_mean_motion_ddot": 0,
        "tle_line1": "1 34885U 93036ACY 25352.96396021  .00002138  00000+0  54056-3 0  9998",
        "tle_line2": "2 34885  74.0297 171.3020 0015090 256.6098 228.3961 14.51533828875690"
      },
      "geometry": {
        "type": "Point",
        "coordinates": [
          -178.07634596611686,
          34.236899945733434
        ]
      }
    },
    {
      "type": "Feature",
      "properties": {
        "norad_id": 34886,
        "name": "COSMOS 2251 DEB",
        "group": "cosmos-2251-debris",
        "lat": 22.21853976882957,
        "lon": 173.5345350364963,
        "alt_km": 429.6512816866216,
        "timestamp": "2025-12-19T06:59:44.302145+00:00",
        "meta_object_name": "COSMOS 2251 DEB",
        "meta_object_id": "1993-036ACZ",
        "meta_epoch": "2025-12-17T20:34:53.099328",
        "meta_mean_motion": 15.39300916,
        "meta_eccentricity": 0.00309575,
        "meta_inclination": 73.9497,
        "meta_ra_of_asc_node": 169.8917,
        "meta_arg_of_pericenter": 352.7247,
        "meta_mean_anomaly": 7.3506,
        "meta_ephemeris_type": 0,
        "meta_classification_type": "U",
        "meta_norad_cat_id": 34886,
        "meta_element_set_no": 999,
        "meta_rev_at_epoch": 63077,
        "meta_bstar": 0.001400083,
        "meta_mean_motion_dot": 0.00055889,
        "meta_mean_motion_ddot": 0,
        "tle_line1": "1 34886U 93036ACZ 25351.85755902  .00055889  00000+0  14001-2 0  9999",
        "tle_line2": "2 34886  73.9497 169.8917 0030957 352.7247   7.3506 15.39300916630776"
      },
      "geometry": {
        "type": "Point",
        "coordinates": [
          173.5345350364963,
          22.21853976882957
        ]
      }
    }
  ]
}